sat44597
1 44597U 12039H   20046.78611308  .00050785  00000-0  43479-3 0  9995
2 44597  97.6059  71.3045 0002240 112.2526 247.8973 15.69298211 54221
